NORAD_CAT_ID,OBJECT_NAME,OBJECT_TYPE,EPOCH,MEAN_MOTION,ECCENTRICITY,INCLINATION,RA_OF_ASC_NODE,ARG_OF_PERICENTER,MEAN_ANOMALY,BSTAR,MEAN_MOTION_DOT,MEAN_MOTION_DDOT,TLE_LINE0,TLE_LINE1,TLE_LINE2,SEMIMAJOR_AXIS,PERIOD,APOGEE,PERIGEE,DECAYED
53864.0,STARLINK-4779,PAYLOAD,2023-01-28 05:54:27,15.08843533,0.0001068,53.2182,345.3705,84.7374,275.374,-6.3752e-06,-3.89e-06,0.0,0 STARLINK-4779,1 53864U 22114AY  23028.24614927 -.00000389  00000-0 -63752-5 0  9996,2 53864  53.2182 345.3705 0001068  84.7374 275.3740 15.08843533 21016,6917.87,95.437,540.4730000000001,538.996,0.0
53864.0,STARLINK-4779,PAYLOAD,2023-01-28 21:48:19,15.08837884,0.0001149,53.2187,342.397,74.2186,285.8933,2.2281e-06,-2.52e-06,0.0,0 STARLINK-4779,1 53864U 22114AY  23028.90855401 -.00000252  00000-0  22281-5 0  9993,2 53864  53.2187 342.3970 0001149  74.2186 285.8933 15.08837884 21659,6917.887,95.438,540.547,538.957,0.0
53864.0,STARLINK-4779,PAYLOAD,2023-01-29 21:39:06,15.08841343,0.0001177,53.218,337.9361,79.1033,281.0091,-4.1639e-05,-9.5e-06,0.0,0 STARLINK-4779,1 53864U 22114AY  23029.90215400 -.00000950  00000-0 -41639-4 0  9996,2 53864  53.2180 337.9361 0001177  79.1033 281.0091 15.08841343 21267,6917.876,95.437,540.556,538.927,0.0
53864.0,STARLINK-4779,PAYLOAD,2023-01-30 05:36:01,15.08846777,0.0001237,53.2186,336.4495,79.0115,281.1017,3.9732e-06,-2.25e-06,0.0,0 STARLINK-4779,1 53864U 22114AY  23030.23334823 -.00000225  00000-0  39732-5 0  9991,2 53864  53.2186 336.4495 0001237  79.0115 281.1017 15.08846777 21313,6917.86,95.437,540.58,538.869,0.0
53864.0,STARLINK-4779,PAYLOAD,2023-01-31 05:26:48,15.08845385,0.0001208,53.2177,331.9879,81.6324,278.4805,2.0984e-05,4.6e-07,0.0,0 STARLINK-4779,1 53864U 22114AY  23031.22694673  .00000046  00000-0  20984-4 0  9991,2 53864  53.2177 331.9879 0001208  81.6324 278.4805 15.08845385 22003,6917.864,95.437,540.565,538.893,0.0
53864.0,STARLINK-4779,PAYLOAD,2023-01-31 19:45:16,15.08843328,0.000116,53.2175,329.3118,89.2715,270.8411,1.0983e-05,-1.13e-06,0.0,0 STARLINK-4779,1 53864U 22114AY  23031.82310702 -.00000113  00000-0  10983-4 0  9999,2 53864  53.2175 329.3118 0001160  89.2715 270.8411 15.08843328 21556,6917.87,95.437,540.538,538.933,0.0
53864.0,STARLINK-4779,PAYLOAD,2023-02-01 02:06:48,15.08848256,0.000126,53.2178,328.1227,95.6195,264.4941,4.251e-05,3.89e-06,0.0,0 STARLINK-4779,1 53864U 22114AY  23032.08806137  .00000389  00000-0  42510-4 0  9995,2 53864  53.2178 328.1227 0001260  95.6195 264.4941 15.08848256 21597,6917.855,95.437,540.592,538.849,0.0
53864.0,STARLINK-4779,PAYLOAD,2023-02-02 01:57:36,15.08836128,0.0001197,53.2173,323.6653,71.1105,289.0017,-0.00012303,-2.245e-05,0.0,0 STARLINK-4779,1 53864U 22114AY  23033.08167617 -.00002245  00000-0 -12303-3 0  9990,2 53864  53.2173 323.6653 0001197  71.1105 289.0017 15.08836128 21743,6917.892,95.438,540.585,538.929,0.0
53864.0,STARLINK-4779,PAYLOAD,2023-02-02 05:08:22,15.08839616,0.0001392,53.2175,323.0685,82.4124,277.7026,-2.1813e-05,-6.35e-06,0.0,0 STARLINK-4779,1 53864U 22114AY  23033.21415093 -.00000635  00000-0 -21813-4 0  9997,2 53864  53.2175 323.0685 0001392  82.4124 277.7026 15.08839616 22309,6917.882,95.438,540.71,538.784,0.0
53864.0,STARLINK-4779,PAYLOAD,2023-02-03 04:59:08,15.08852132,0.0001336,53.2179,318.6074,82.1941,277.9203,3.2842e-05,2.35e-06,0.0,0 STARLINK-4779,1 53864U 22114AY  23034.20773899  .00000235  00000-0  32842-4 0  9996,2 53864  53.2179 318.6074 0001336  82.1941 277.9203 15.08852132 21910,6917.843,95.437,540.633,538.784,0.0
53864.0,STARLINK-4779,PAYLOAD,2023-02-03 19:17:37,15.08838371,0.0002285,53.2179,315.9312,73.0384,287.0858,2.8112e-05,1.59e-06,0.0,0 STARLINK-4779,1 53864U 22114AY  23034.80391156  .00000159  00000-0  28112-4 0  9994,2 53864  53.2179 315.9312 0002285  73.0384 287.0858 15.08838371 22007,6917.885,95.438,541.331,538.17,0.0
53864.0,STARLINK-4779,PAYLOAD,2023-02-04 22:19:11,15.08842017,0.0001333,53.218,310.8779,87.904,272.2104,-0.00010983,-2.036e-05,0.0,0 STARLINK-4779,1 53864U 22114AY  23035.92999595 -.00002036  00000-0 -10983-3 0  9993,2 53864  53.2180 310.8779 0001333  87.9040 272.2104 15.08842017 22176,6917.874,95.437,540.661,538.817,0.0
53864.0,STARLINK-4779,PAYLOAD,2023-02-05 03:05:20,15.08849357,0.0001325,53.2177,309.985,83.0446,277.0697,-5.5328e-05,-1.169e-05,0.0,0 STARLINK-4779,1 53864U 22114AY  23036.12870916 -.00001169  00000-0 -55328-4 0  9990,2 53864  53.2177 309.9850 0001325  83.0446 277.0697 15.08849357 22207,6917.852,95.437,540.633,538.8,0.0
53864.0,STARLINK-4779,PAYLOAD,2023-02-05 22:09:59,15.08832033,0.0001386,53.2177,306.4169,89.3506,270.7645,-3.1516e-05,-7.89e-06,0.0,0 STARLINK-4779,1 53864U 22114AY  23036.92360099 -.00000789  00000-0 -31516-4 0  9994,2 53864  53.2177 306.4169 0001386  89.3506 270.7645 15.08832033 22863,6917.905,95.438,540.729,538.811,0.0
53864.0,STARLINK-4779,PAYLOAD,2023-02-06 02:56:08,15.08839693,0.0001356,53.2186,305.523,72.519,287.595,2.6836e-05,1.39e-06,0.0,0 STARLINK-4779,1 53864U 22114AY  23037.12231516  .00000139  00000-0  26836-4 0  9994,2 53864  53.2186 305.5230 0001356  72.5190 287.5950 15.08839693 22350,6917.881,95.438,540.684,538.808,0.0
53864.0,STARLINK-4779,PAYLOAD,2023-02-06 17:14:36,15.08836007,0.0001229,53.2182,302.8484,68.1446,291.9677,4.1975e-06,-2.21e-06,0.0,0 STARLINK-4779,1 53864U 22114AY  23037.71848007 -.00000221  00000-0  41975-5 0  9993,2 53864  53.2182 302.8484 0001229  68.1446 291.9677 15.08836007 22981,6917.893,95.438,540.608,538.907,0.0
53864.0,STARLINK-4779,PAYLOAD,2023-02-07 02:46:53,15.08854072,0.0001235,53.2175,301.0637,79.1962,280.9169,0.0001467,2.048e-05,0.0,0 STARLINK-4779,1 53864U 22114AY  23038.11590229  .00002048  00000-0  14670-3 0  9996,2 53864  53.2175 301.0637 0001235  79.1962 280.9169 15.08854072 22500,6917.837,95.437,540.557,538.848,0.0
53864.0,STARLINK-4779,PAYLOAD,2023-02-07 21:51:31,15.08853065,0.0001474,53.218,297.495,108.9153,251.1999,6.1682e-05,6.94e-06,0.0,0 STARLINK-4779,1 53864U 22114AY  23038.91078434  .00000694  00000-0  61682-4 0  9994,2 53864  53.2180 297.4950 0001474 108.9153 251.1999 15.08853065 23165,6917.84,95.437,540.725,538.686,0.0
53864.0,STARLINK-4779,PAYLOAD,2023-02-07 23:26:55,15.08847841,0.0001314,53.2176,297.2021,82.0868,278.0274,4.1532e-05,3.73e-06,0.0,0 STARLINK-4779,1 53864U 22114AY  23038.97702945  .00000373  00000-0  41532-4 0  9997,2 53864  53.2176 297.2021 0001314  82.0868 278.0274 15.08847841 22635,6917.856,95.437,540.63,538.812,0.0
53864.0,STARLINK-4779,PAYLOAD,2023-02-08 21:42:19,15.0884095,0.0001489,53.2176,293.0357,105.1765,254.9391,-8.0164e-05,-1.564e-05,0.0,0 STARLINK-4779,1 53864U 22114AY  23039.90439737 -.00001564  00000-0 -80164-4 0  9996,2 53864  53.2176 293.0357 0001489 105.1765 254.9391 15.08840950 23310,6917.877,95.437,540.773,538.712,0.0
53864.0,STARLINK-4779,PAYLOAD,2023-02-09 02:28:29,15.08842999,0.0001393,53.2179,292.1388,112.6808,247.4332,-6.3779e-05,-1.303e-05,0.0,0 STARLINK-4779,1 53864U 22114AY  23040.10311346 -.00001303  00000-0 -63779-4 0  9999,2 53864  53.2179 292.1388 0001393 112.6808 247.4332 15.08842999 22802,6917.871,95.437,540.7,538.773,0.0
53864.0,STARLINK-4779,PAYLOAD,2023-02-09 19:57:43,15.08846271,0.0001437,53.2171,288.8659,116.9836,243.1303,-0.0001502,-2.678e-05,0.0,0 STARLINK-4779,1 53864U 22114AY  23040.83175732 -.00002678  00000-0 -15020-3 0  9997,2 53864  53.2171 288.8659 0001437 116.9836 243.1303 15.08846271 23454,6917.861,95.437,540.72,538.732,0.0
53864.0,STARLINK-4779,PAYLOAD,2023-02-10 02:19:15,15.08858513,0.0001362,53.2177,287.6808,111.832,248.2817,3.2872e-05,2.35e-06,0.0,0 STARLINK-4779,1 53864U 22114AY  23041.09670467  .00000235  00000-0  32872-4 0  9991,2 53864  53.2177 287.6808 0001362 111.8320 248.2817 15.08858513 23494,6917.824,95.436,540.631,538.747,0.0
53864.0,STARLINK-4779,PAYLOAD,2023-02-10 22:59:17,15.08836631,0.0001632,53.2162,283.8128,87.2287,272.8892,3.9038e-05,3.33e-06,0.0,0 STARLINK-4779,1 53864U 22114AY  23041.95783954  .00000333  00000-0  39038-4 0  9992,2 53864  53.2162 283.8128 0001632  87.2287 272.8892 15.08836631 23087,6917.891,95.438,540.885,538.627,0.0
53864.0,STARLINK-4779,PAYLOAD,2023-02-12 08:22:23,15.08839943,0.0001289,53.2169,277.571,89.7565,270.3575,-4.757e-05,-1.045e-05,0.0,0 STARLINK-4779,1 53864U 22114AY  23043.34888456 -.00001045  00000-0 -47570-4 0  9993,2 53864  53.2169 277.5710 0001289  89.7565 270.3575 15.08839943 23298,6917.881,95.438,540.637,538.854,0.0
53864.0,STARLINK-4779,PAYLOAD,2023-02-12 14:43:56,15.08830723,0.0001795,53.216,276.3826,84.3192,275.8005,2.0883e-05,4.4e-07,0.0,0 STARLINK-4779,1 53864U 22114AY  23043.61385176  .00000044  00000-0  20883-4 0  9998,2 53864  53.2160 276.3826 0001795  84.3192 275.8005 15.08830723 23872,6917.909,95.438,541.016,538.532,0.0
53864.0,STARLINK-4779,PAYLOAD,2023-02-12 16:19:20,15.08829483,0.0001252,53.2185,276.0863,85.185,274.9285,-0.00010411,-1.944e-05,0.0,0 STARLINK-4779,1 53864U 22114AY  23043.68009581 -.00001944  00000-0 -10411-3 0  9995,2 53864  53.2185 276.0863 0001252  85.1850 274.9285 15.08829483 23348,6917.913,95.438,540.644,538.911,0.0
53864.0,STARLINK-4779,PAYLOAD,2023-02-13 00:16:15,15.0883818,0.0001416,53.2185,274.599,89.2033,270.9121,-3.3869e-05,-8.27e-06,0.0,0 STARLINK-4779,1 53864U 22114AY  23044.01128926 -.00000827  00000-0 -33869-4 0  9990,2 53864  53.2185 274.5990 0001416  89.2033 270.9121 15.08838180 23396,6917.886,95.438,540.731,538.771,0.0
53864.0,STARLINK-4779,PAYLOAD,2023-02-13 14:34:44,15.08827736,8.78e-05,53.2169,271.9209,81.9946,278.1146,-8.1207e-05,-1.579e-05,0.0,0 STARLINK-4779,1 53864U 22114AY  23044.60745504 -.00001579  00000-0 -81207-4 0  9996,2 53864  53.2169 271.9209 0000878  81.9946 278.1146 15.08827736 23487,6917.918,95.438,540.39,539.175,0.0
53864.0,STARLINK-4779,PAYLOAD,2023-02-14 08:03:58,15.08834677,0.0001032,53.2171,268.6499,81.206,278.9049,-7.0615e-06,-4e-06,0.0,0 STARLINK-4779,1 53864U 22114AY  23045.33609237 -.00000400  00000-0 -70615-5 0  9993,2 53864  53.2171 268.6499 0001032  81.2060 278.9049 15.08834677 23591,6917.897,95.438,540.476,539.048,0.0
